STARLINK-30784          
1 58156U 23166G   26068.68282693 -.00001459  00000+0 -37174-4 0  9995
2 58156  53.1607 219.9577 0000899  89.6522 270.4582 15.30178394133025
KUIPER-00209            
1 67776U 26030N   26068.61786546  .00035298  00000+0  11963-2 0  9997
2 67776  51.8838 220.0775 0012191  59.1967 301.0215 15.30161950  5077
